{
    "links": {
        "self": "http://www.neowsapp.com/rest/v1/neo/3392375?api_key=iIulBulltgU6a56xZRHN4H3l9WmuAYTsLGpBGhQ2"
    },
    "id": "3392375",
    "neo_reference_id": "3392375",
    "name": "(2007 VE8)",
    "designation": "2007 VE8",
    "nasa_jpl_url": "http://ssd.jpl.nasa.gov/sbdb.cgi?sstr=3392375",
    "absolute_magnitude_h": 25.4,
    "estimated_diameter": {
        "kilometers": {
            "estimated_diameter_min": 0.022108281,
            "estimated_diameter_max": 0.0494356193
        },
        "meters": {
            "estimated_diameter_min": 22.1082810359,
            "estimated_diameter_max": 49.435619262
        },
        "miles": {
            "estimated_diameter_min": 0.0137374447,
            "estimated_diameter_max": 0.0307178602
        },
        "feet": {
            "estimated_diameter_min": 72.5337327539,
            "estimated_diameter_max": 162.1903570994
        }
    },
    "is_potentially_hazardous_asteroid": false,
    "close_approach_data": [
        {
            "close_approach_date": "2007-11-01",
            "close_approach_date_full": "2007-Nov-01 14:34",
            "epoch_date_close_approach": 1193927640000,
            "relative_velocity": {
                "kilometers_per_second": "8.0470678841",
                "kilometers_per_hour": "28969.4443826009",
                "miles_per_hour": "18000.4861498444"
            },
            "miss_distance": {
                "astronomical": "0.0477257672",
                "lunar": "18.5653234408",
                "kilometers": "7139673.117235864",
                "miles": "4436387.1570443632"
            },
            "orbiting_body": "Earth"
        }
    ],
    "orbital_data": {
        "orbit_id": "12",
        "orbit_determination_date": "2017-04-06 09:05:21",
        "first_observation_date": "2007-11-05",
        "last_observation_date": "2007-11-16",
        "data_arc_in_days": 11,
        "observations_used": 29,
        "orbit_uncertainty": "8",
        "minimum_orbit_intersection": ".0477073",
        "jupiter_tisserand_invariant": "3.192",
        "epoch_osculation": "2454412.5",
        "eccentricity": ".5858619227267499",
        "semi_major_axis": "2.506969819090424",
        "inclination": "7.215378573789381",
        "ascending_node_longitude": "44.02012345397876",
        "orbital_period": "1449.846702936335",
        "perihelion_distance": "1.038231660660176",
        "perihelion_argument": "351.7061974869808",
        "aphelion_distance": "3.975707977520672",
        "perihelion_time": "2454403.614848773960",
        "mean_anomaly": "2.206201824576524",
        "mean_motion": ".2483021130929923",
        "equinox": "J2000",
        "orbit_class": {
            "orbit_class_type": "AMO",
            "orbit_class_description": "Near-Earth asteroid orbits similar to that of 1221 Amor",
            "orbit_class_range": "1.017 AU < q (perihelion) < 1.3 AU"
        }
    },
    "is_sentry_object": false
}